{
  "type": "FeatureCollection",
  "features": [
    {
      "type": "Feature",
      "properties": {
        "norad_id": 41384,
        "name": "IRNSS-1F",
        "group": "gnss",
        "lat": 4.230804448447272,
        "lon": -139.49481605683565,
        "alt_km": 35739.52274521804,
        "timestamp": "2025-12-06T07:31:40.479913+00:00",
        "meta_object_name": "IRNSS-1F",
        "meta_object_id": "2016-015A",
        "meta_epoch": "2025-12-04T13:52:48.727200",
        "meta_mean_motion": 1.00268262,
        "meta_eccentricity": 0.0022409,
        "meta_inclination": 4.8599,
        "meta_ra_of_asc_node": 101.5018,
        "meta_arg_of_pericenter": 179.6667,
        "meta_mean_anomaly": 33.0691,
        "meta_ephemeris_type": 0,
        "meta_classification_type": "U",
        "meta_norad_cat_id": 41384,
        "meta_element_set_no": 999,
        "meta_rev_at_epoch": 3571,
        "meta_bstar": 0,
        "meta_mean_motion_dot": 1.71e-06,
        "meta_mean_motion_ddot": 0,
        "tle_line1": "1 41384U 16015A   25338.57834175  .00000171  00000+0  00000+0 0  9991",
        "tle_line2": "2 41384   4.8599 101.5018 0022409 179.6667  33.0691  1.00268262 35717"
      },
      "geometry": {
        "type": "Point",
        "coordinates": [
          -139.49481605683565,
          4.230804448447272
        ]
      }
    },
    {
      "type": "Feature",
      "properties": {
        "norad_id": 41434,
        "name": "BEIDOU-2 IGSO-6 (C13)",
        "group": "gnss",
        "lat": -48.592102079175405,
        "lon": -99.05521483184837,
        "alt_km": 35549.022913348075,
        "timestamp": "2025-12-06T07:31:40.479927+00:00",
        "meta_object_name": "BEIDOU-2 IGSO-6 (C13)",
        "meta_object_id": "2016-021A",
        "meta_epoch": "2025-12-01T15:57:35.287200",
        "meta_mean_motion": 1.00256562,
        "meta_eccentricity": 0.00591323,
        "meta_inclination": 59.9483,
        "meta_ra_of_asc_node": 40.0119,
        "meta_arg_of_pericenter": 231.2834,
        "meta_mean_anomaly": 130.8807,
        "meta_ephemeris_type": 0,
        "meta_classification_type": "U",
        "meta_norad_cat_id": 41434,
        "meta_element_set_no": 999,
        "meta_rev_at_epoch": 3550,
        "meta_bstar": 0,
        "meta_mean_motion_dot": -1.55e-06,
        "meta_mean_motion_ddot": 0,
        "tle_line1": "1 41434U 16021A   25335.66499175 -.00000155  00000+0  00000+0 0  9991",
        "tle_line2": "2 41434  59.9483  40.0119 0059132 231.2834 130.8807  1.00256562 35501"
      },
      "geometry": {
        "type": "Point",
        "coordinates": [
          -99.05521483184837,
          -48.592102079175405
        ]
      }
    },
    {
      "type": "Feature",
      "properties": {
        "norad_id": 41469,
        "name": "IRNSS-1G",
        "group": "gnss",
        "lat": -2.7434936096841596,
        "lon": -42.412968185492886,
        "alt_km": 35802.41327114192,
        "timestamp": "2025-12-06T07:31:40.479939+00:00",
        "meta_object_name": "IRNSS-1G",
        "meta_object_id": "2016-027A",
        "meta_epoch": "2025-12-05T05:45:04.490784",
        "meta_mean_motion": 1.0025287,
        "meta_eccentricity": 0.00046618,
        "meta_inclination": 4.7142,
        "meta_ra_of_asc_node": 102.2925,
        "meta_arg_of_pericenter": 337.5739,
        "meta_mean_anomaly": 210.2259,
        "meta_ephemeris_type": 0,
        "meta_classification_type": "U",
        "meta_norad_cat_id": 41469,
        "meta_element_set_no": 999,
        "meta_rev_at_epoch": 3523,
        "meta_bstar": 0,
        "meta_mean_motion_dot": -3.26e-06,
        "meta_mean_motion_ddot": 0,
        "tle_line1": "1 41469U 16027A   25339.23963531 -.00000326  00000+0  00000+0 0  9994",
        "tle_line2": "2 41469   4.7142 102.2925 0004661 337.5739 210.2259  1.00252870 35238"
      },
      "geometry": {
        "type": "Point",
        "coordinates": [
          -42.412968185492886,
          -2.7434936096841596
        ]
      }
    },
    {
      "type": "Feature",
      "properties": {
        "norad_id": 41549,
        "name": "GSAT0211 (GALILEO 14)",
        "group": "gnss",
        "lat": -39.727130565398774,
        "lon": -168.32033247903428,
        "alt_km": 23221.834527874857,
        "timestamp": "2025-12-06T07:31:40.479951+00:00",
        "meta_object_name": "GSAT0211 (GALILEO 14)",
        "meta_object_id": "2016-030A",
        "meta_epoch": "2025-12-04T15:17:32.790048",
        "meta_mean_motion": 1.70472925,
        "meta_eccentricity": 0.00039451,
        "meta_inclination": 55.1551,
        "meta_ra_of_asc_node": 227.0467,
        "meta_arg_of_pericenter": 12.3132,
        "meta_mean_anomaly": 347.7919,
        "meta_ephemeris_type": 0,
        "meta_classification_type": "U",
        "meta_norad_cat_id": 41549,
        "meta_element_set_no": 999,
        "meta_rev_at_epoch": 5935,
        "meta_bstar": 0,
        "meta_mean_motion_dot": 4e-07,
        "meta_mean_motion_ddot": 0,
        "tle_line1": "1 41549U 16030A   25338.63718507  .00000040  00000+0  00000+0 0  9993",
        "tle_line2": "2 41549  55.1551 227.0467 0003945  12.3132 347.7919  1.70472925 59357"
      },
      "geometry": {
        "type": "Point",
        "coordinates": [
          -168.32033247903428,
          -39.727130565398774
        ]
      }
    },
    {
      "type": "Feature",
      "properties": {
        "norad_id": 41550,
        "name": "GSAT0210 (GALILEO 13)",
        "group": "gnss",
        "lat": 23.51180181355149,
        "lon": 29.38401417553153,
        "alt_km": 23219.64423295875,
        "timestamp": "2025-12-06T07:31:40.479962+00:00",
        "meta_object_name": "GSAT0210 (GALILEO 13)",
        "meta_object_id": "2016-030B",
        "meta_epoch": "2025-12-04T07:23:32.472672",
        "meta_mean_motion": 1.70473512,
        "meta_eccentricity": 0.0001419,
        "meta_inclination": 55.1546,
        "meta_ra_of_asc_node": 227.0538,
        "meta_arg_of_pericenter": 244.2228,
        "meta_mean_anomaly": 115.8568,
        "meta_ephemeris_type": 0,
        "meta_classification_type": "U",
        "meta_norad_cat_id": 41550,
        "meta_element_set_no": 999,
        "meta_rev_at_epoch": 5934,
        "meta_bstar": 0,
        "meta_mean_motion_dot": 4e-07,
        "meta_mean_motion_ddot": 0,
        "tle_line1": "1 41550U 16030B   25338.30801473  .00000040  00000+0  00000+0 0  9994",
        "tle_line2": "2 41550  55.1546 227.0538 0001419 244.2228 115.8568  1.70473512 59344"
      },
      "geometry": {
        "type": "Point",
        "coordinates": [
          29.38401417553153,
          23.51180181355149
        ]
      }
    },
    {
      "type": "Feature",
      "properties": {
        "norad_id": 41586,
        "name": "BEIDOU-2 G7 (C03)",
        "group": "gnss",
        "lat": -1.3683535447753734,
        "lon": -61.30156199739983,
        "alt_km": 35798.95502582027,
        "timestamp": "2025-12-06T07:31:40.479973+00:00",
        "meta_object_name": "BEIDOU-2 G7 (C03)",
        "meta_object_id": "2016-037A",
        "meta_epoch": "2025-12-05T14:13:25.464576",
        "meta_mean_motion": 1.00270507,
        "meta_eccentricity": 0.0004355,
        "meta_inclination": 1.7387,
        "meta_ra_of_asc_node": 67.7225,
        "meta_arg_of_pericenter": 2.4156,
        "meta_mean_anomaly": 328.3509,
        "meta_ephemeris_type": 0,
        "meta_classification_type": "U",
        "meta_norad_cat_id": 41586,
        "meta_element_set_no": 999,
        "meta_rev_at_epoch": 494,
        "meta_bstar": 0,
        "meta_mean_motion_dot": -3.44e-06,
        "meta_mean_motion_ddot": 0,
        "tle_line1": "1 41586U 16037A   25339.59265584 -.00000344  00000+0  00000+0 0  9997",
        "tle_line2": "2 41586   1.7387  67.7225 0004355   2.4156 328.3509  1.00270507  4945"
      },
      "geometry": {
        "type": "Point",
        "coordinates": [
          -61.30156199739983,
          -1.3683535447753734
        ]
      }
    },
    {
      "type": "Feature",
      "properties": {
        "norad_id": 41589,
        "name": "EUTELSAT 117 WEST B (WAAS/PRN 131)",
        "group": "gnss",
        "lat": -0.0167248153209288,
        "lon": 71.24730136749513,
        "alt_km": 35786.02169962617,
        "timestamp": "2025-12-06T07:31:40.479987+00:00",
        "meta_object_name": "EUTELSAT 117 WEST B (WAAS/PRN 131)",
        "meta_object_id": "2016-038B",
        "meta_epoch": "2025-12-04T23:26:32.000928",
        "meta_mean_motion": 1.00268963,
        "meta_eccentricity": 2.521e-05,
        "meta_inclination": 0.0075,
        "meta_ra_of_asc_node": 147.6568,
        "meta_arg_of_pericenter": 325.2322,
        "meta_mean_anomaly": 195.7827,
        "meta_ephemeris_type": 0,
        "meta_classification_type": "U",
        "meta_norad_cat_id": 41589,
        "meta_element_set_no": 999,
        "meta_rev_at_epoch": 3471,
        "meta_bstar": 0,
        "meta_mean_motion_dot": 2e-08,
        "meta_mean_motion_ddot": 0,
        "tle_line1": "1 41589U 16038B   25338.97675927  .00000002  00000+0  00000+0 0  9998",
        "tle_line2": "2 41589   0.0075 147.6568 0000252 325.2322 195.7827  1.00268963 34715"
      },
      "geometry": {
        "type": "Point",
        "coordinates": [
          71.24730136749513,
          -0.0167248153209288
        ]
      }
    }
  ]
}